H1 CPF  1  DLR 2021 02 03 10  5342 technosat            
H2  1704205 6203    42829 2021 02 03 00 00 00 2021 02 10 00 00 00    60 1 1  0 0 0
H9
10 0 59252  21600.000000  0      -4791253.855      -4857806.604      -1415865.968
10 0 59252  21660.000000  0      -4780686.977      -4719273.455      -1853237.414
10 0 59252  21720.000000  0      -4748630.251      -4560994.803      -2282724.874
10 0 59252  21780.000000  0      -4695056.333      -4383833.345      -2702504.283
10 0 59252  21840.000000  0      -4620037.439      -4188731.713      -3110794.525
10 0 59252  21900.000000  0      -4523745.493      -3976707.350      -3505865.141
10 0 59252  21960.000000  0      -4406451.781      -3748847.088      -3886043.739
10 0 59252  22020.000000  0      -4268526.142      -3506301.442      -4249723.131
10 0 59252  22080.000000  0      -4110435.665      -3250278.620      -4595368.117
10 0 59252  22140.000000  0      -3932742.907      -2982038.331      -4921521.894
10 0 59252  22200.000000  0      -3736103.665      -2702885.422      -5226812.060
10 0 59252  22260.000000  0      -3521264.315      -2414163.400      -5509956.189
10 0 59252  22320.000000  0      -3289058.755      -2117247.844      -5769767.000
10 0 59252  22380.000000  0      -3040404.973      -1813539.751      -6005157.094
10 0 59252  22440.000000  0      -2776301.192      -1504458.831      -6215143.245
10 0 59252  22500.000000  0      -2497821.649      -1191436.815      -6398850.208
10 0 59252  22560.000000  0      -2206112.036       -875910.803      -6555514.033
10 0 59252  22620.000000  0      -1902384.636       -559316.673      -6684484.884
10 0 59252  22680.000000  0      -1587913.207       -243082.610      -6785229.363
10 0 59252  22740.000000  0      -1264027.659         71377.210      -6857332.393
10 0 59252  22800.000000  0       -932108.469        382668.815      -6900498.761
10 0 59252  22860.000000  0       -593580.801        689424.527      -6914554.177
10 0 59252  22920.000000  0       -249908.440        990308.906      -6899445.778
10 0 59252  22980.000000  0         97412.397       1284024.373      -6855242.174
10 0 59252  23040.000000  0        446859.400       1569316.642      -6782133.241
10 0 59252  23100.000000  0        796890.826       1844980.074      -6680429.443
10 0 59252  23160.000000  0       1145952.289       2109862.722      -6550560.462
10 0 59252  23220.000000  0       1492483.504       2362871.032      -6393073.434
10 0 59252  23280.000000  0       1834925.160       2602974.367      -6208630.882
10 0 59252  23340.000000  0       2171725.927       2829209.233      -5998008.048
10 0 59252  23400.000000  0       2501349.405       3040683.071      -5762089.751
10 0 59252  23460.000000  0       2822281.022       3236577.770      -5501866.927
10 0 59252  23520.000000  0       3133034.974       3416152.904      -5218432.774
10 0 59252  23580.000000  0       3432161.150       3578748.646      -4912978.400
10 0 59252  23640.000000  0       3718251.955       3723788.243      -4586788.027
10 0 59252  23700.000000  0       3989948.994       3850780.139      -4241233.806
10 0 59252  23760.000000  0       4245949.636       3959319.719      -3877770.242
10 0 59252  23820.000000  0       4485013.391       4049090.601      -3497928.177
10 0 59252  23880.000000  0       4705968.015       4119865.524      -3103308.439
10 0 59252  23940.000000  0       4907715.319       4171506.812      -2695575.149
10 0 59252  24000.000000  0       5089236.708       4203966.426      -2276448.790
10 0 59252  24060.000000  0       5249598.473       4217285.598      -1847698.926
10 0 59252  24120.000000  0       5387956.634       4211593.989      -1411136.646
10 0 59252  24180.000000  0       5503561.384       4187108.434       -968606.847
10 0 59252  24240.000000  0       5595761.115       4144131.281       -521980.343
10 0 59252  24300.000000  0       5664006.012       4083048.329        -73145.855
10 0 59252  24360.000000  0       5707851.218       4004326.353        375998.115
10 0 59252  24420.000000  0       5726959.495       3908510.228        823551.499
10 0 59252  24480.000000  0       5721103.335       3796219.637       1267620.886
10 0 59252  24540.000000  0       5690166.563       3668145.440       1706327.681
10 0 59252  24600.000000  0       5634145.402       3525045.732       2137816.217
10 0 59252  24660.000000  0       5553148.982       3367741.620       2560261.755
10 0 59252  24720.000000  0       5447399.313       3197112.702       2971878.342
10 0 59252  24780.000000  0       5317230.720       3014092.267       3370926.465
10 0 59252  24840.000000  0       5163088.726       2819662.271       3755720.456
10 0 59252  24900.000000  0       4985528.386       2614848.109       4124635.662
10 0 59252  24960.000000  0       4785212.030       2400713.179       4476115.130
10 0 59252  25020.000000  0       4562906.858       2178353.525       4808675.983
10 0 59252  25080.000000  0       4319481.903       1948892.289       5120915.847
10 0 59252  25140.000000  0       4055904.321       1713474.052       5411518.651
10 0 59252  25200.000000  0       3773235.344       1473259.135       5679259.994
10 0 59252  25260.000000  0       3472625.823       1229417.870       5923012.092
10 0 59252  25320.000000  0       3155311.401        983124.922       6141748.251
10 0 59252  25380.000000  0       2822607.352        735553.704       6334546.920
10 0 59252  25440.000000  0       2475903.131        487870.921       6500595.359
10 0 59252  25500.000000  0       2116656.578        241231.155       6639192.944
10 0 59252  25560.000000  0       1746387.824         -3228.446       6749754.013
10 0 59252  25620.000000  0       1366672.865       -244393.341       6831810.295
10 0 59252  25680.000000  0        979136.836       -481176.671       6885012.816
10 0 59252  25740.000000  0        585447.108       -712524.113       6909133.233
10 0 59252  25800.000000  0        187306.223       -937418.504       6904064.834
10 0 59252  25860.000000  0       -213555.417      -1154884.296       6869823.037
10 0 59252  25920.000000  0       -615386.966      -1363991.796       6806545.397
10 0 59252  25980.000000  0      -1016424.720      -1563861.148       6714491.139
10 0 59252  26040.000000  0      -1414899.748      -1753666.029       6594040.183
10 0 59252  26100.000000  0      -1809045.565      -1932637.052       6445691.764
10 0 59252  26160.000000  0      -2197105.865      -2100064.875       6270062.645
10 0 59252  26220.000000  0      -2577342.300      -2255303.087       6067884.941
10 0 59252  26280.000000  0      -2948042.395      -2397770.844       5840003.475
10 0 59252  26340.000000  0      -3307527.490      -2526955.191       5587372.496
10 0 59252  26400.000000  0      -3654160.475      -2642412.971       5311051.838
10 0 59252  26460.000000  0      -3986353.389      -2743772.441       5012202.728
10 0 59252  26520.000000  0      -4302574.912      -2830734.524       4692083.100
10 0 59252  26580.000000  0      -4601357.641      -2903073.676       4352042.465
10 0 59252  26640.000000  0      -4881305.142      -2960638.381       3993516.379
10 0 59252  26700.000000  0      -5141098.728      -3003351.297       3618020.519
10 0 59252  26760.000000  0      -5379503.965      -3031209.037       3227144.387
10 0 59252  26820.000000  0      -5595376.874      -3044281.591       2822544.632
10 0 59252  26880.000000  0      -5787669.756      -3042711.382       2405937.981
10 0 59252  26940.000000  0      -5955436.578      -3026711.968       1979093.834
10 0 59252  27000.000000  0      -6097837.910      -2996566.370       1543826.543
10 0 59252  27060.000000  0      -6214145.311      -2952624.945       1101987.429
10 0 59252  27120.000000  0      -6303745.176      -2895302.935        655456.698
10 0 59252  27180.000000  0      -6366142.096      -2825077.734        206135.203
10 0 59252  27240.000000  0      -6400961.669      -2742485.842       -244063.989
10 0 59252  27300.000000  0      -6407952.683      -2648119.474       -693224.134
10 0 59252  27360.000000  0      -6386988.611      -2542622.865      -1139433.350
10 0 59252  27420.000000  0      -6338068.465      -2426688.342      -1580793.088
10 0 59252  27480.000000  0      -6261317.045      -2301052.195      -2015426.483
10 0 59252  27540.000000  0      -6156984.588      -2166490.330      -2441486.596
10 0 59252  27600.000000  0      -6025445.817      -2023813.751      -2857164.479
10 0 59252  27660.000000  0      -5867198.371      -1873863.908      -3260697.060
10 0 59252  27720.000000  0      -5682860.608      -1717507.924      -3650374.763
10 0 59252  27780.000000  0      -5473168.858      -1555633.755      -4024548.806
10 0 59252  27840.000000  0      -5238974.136      -1389145.293      -4381638.207
10 0 59252  27900.000000  0      -4981238.337      -1218957.442      -4720136.447
10 0 59252  27960.000000  0      -4701029.887      -1045991.178      -5038617.768
10 0 59252  28020.000000  0      -4399518.893       -871168.664      -5335743.024
10 0 59252  28080.000000  0      -4077971.878       -695408.437      -5610265.088
10 0 59252  28140.000000  0      -3737746.138       -519620.677      -5861033.836
10 0 59252  28200.000000  0      -3380283.698       -344702.583      -6087000.675
10 0 59252  28260.000000  0      -3007104.962       -171533.899      -6287222.588
10 0 59252  28320.000000  0      -2619802.073          -972.612      -6460865.756
10 0 59252  28380.000000  0      -2220031.947        166149.177      -6607208.752
10 0 59252  28440.000000  0      -1809509.036        329029.163      -6725645.168
10 0 59252  28500.000000  0      -1389997.991        486898.545      -6815685.820
10 0 59252  28560.000000  0       -963306.098        639025.588      -6876960.536
10 0 59252  28620.000000  0       -531275.539        784718.946      -6909219.422
10 0 59252  28680.000000  0        -95775.561        923330.705      -6912333.646
10 0 59252  28740.000000  0        341305.411       1054259.130      -6886295.869
99
